[
    {
        "CCSDS_OMM_VERS": "3.0",
        "COMMENT": "GENERATED VIA SPACE-TRACK.ORG API",
        "CREATION_DATE": "2025-03-02T18:08:23",
        "ORIGINATOR": "18 SPCS",
        "OBJECT_NAME": "COSMOS 2569 (GLONASS)",
        "OBJECT_ID": "2023-114A",
        "CENTER_NAME": "EARTH",
        "REF_FRAME": "TEME",
        "TIME_SYSTEM": "UTC",
        "MEAN_ELEMENT_THEORY": "SGP4",
        "EPOCH": "2025-03-02T04:20:48.275520",
        "MEAN_MOTION": "2.13104025",
        "ECCENTRICITY": "0.00127470",
        "INCLINATION": "65.0393",
        "RA_OF_ASC_NODE": "88.5696",
        "ARG_OF_PERICENTER": "292.1445",
        "MEAN_ANOMALY": "67.7858",
        "EPHEMERIS_TYPE": "0",
        "CLASSIFICATION_TYPE": "U",
        "NORAD_CAT_ID": "57517",
        "ELEMENT_SET_NO": "999",
        "REV_AT_EPOCH": "1220",
        "BSTAR": "0.00000000000000",
        "MEAN_MOTION_DOT": "0.00000039",
        "MEAN_MOTION_DDOT": "0.0000000000000",
        "SEMIMAJOR_AXIS": "25507.863",
        "PERIOD": "675.726",
        "APOAPSIS": "19162.243",
        "PERIAPSIS": "19097.213",
        "OBJECT_TYPE": "PAYLOAD",
        "RCS_SIZE": "LARGE",
        "COUNTRY_CODE": "CIS",
        "LAUNCH_DATE": "2023-08-07",
        "SITE": "PKMTR",
        "DECAY_DATE": null,
        "FILE": "4657142",
        "GP_ID": "282095232",
        "TLE_LINE0": "0 COSMOS 2569 (GLONASS)",
        "TLE_LINE1": "1 57517U 23114A   25061.18111430  .00000039  00000-0  00000-0 0  9991",
        "TLE_LINE2": "2 57517  65.0393  88.5696 0012747 292.1445  67.7858  2.13104025 12207"
    }
]